ONEWEB-0456             
1 51646U 22012AA  25253.79850911 -.00000363  00000+0 -10763-2 0  9998
2 51646  87.8747  91.9399 0001507  83.2389 276.8909 13.10369191172758
ONEWEB-0457             
1 51647U 22012AB  25253.62258659  .00000679  00000+0  19088-2 0  9999
2 51647  87.8741  92.0317 0002035  91.1488 268.9873 13.10373371172735
ONEWEB-0458             
1 51648U 22012AC  25253.79685673 -.00000210  00000+0 -63715-3 0  9998
2 51648  87.8735  91.9684 0001795  80.9538 279.1792 13.10369413172712
ONEWEB-0461             
1 51649U 22012AD  25253.55617519 -.00000023  00000+0 -92628-4 0  9995
2 51649  87.9045  61.4663 0001782  96.1429 263.9906 13.17651517177068
ONEWEB-0463             
1 51650U 22012AE  25253.84134519  .00000042  00000+0  74429-4 0  9991
2 51650  87.9031  61.4694 0001745  89.9736 270.1595 13.17651201176882
ONEWEB-0464             
1 51651U 22012AF  25253.79354115 -.00000043  00000+0 -16054-3 0  9994
2 51651  87.8740  92.0075 0001388  80.8494 279.2790 13.10369448172735
ONEWEB-0468             
1 51652U 22012AG  25253.80019248 -.00000873  00000+0 -25375-2 0  9998
2 51652  87.8741  91.9981 0001581  84.6082 275.5226 13.10358002172716
ONEWEB-0473             
1 51653U 22012AH  25253.78524265  .00000403  00000+0  11182-2 0  9994
2 51653  87.8743  92.0044 0001685  81.4613 278.6705 13.10369482172711
ONEWEB-0474             
1 51654U 22012AJ  25253.62423953  .00000564  00000+0  15785-2 0  9991
2 51654  87.8745  91.9974 0001587  77.7379 282.3926 13.10371539172681
ONEWEB-0475             
1 51655U 22012AK  25253.70130336  .00000049  00000+0  92541-4 0  9996
2 51655  87.9037  61.4802 0001734  64.5607 295.5704 13.17649783176883
ONEWEB-0490             
1 54113U 22138A   25253.82550652 -.00000007  00000+0 -50639-4 0  9995
2 54113  87.9287   0.4985 0001576  98.6186 261.5126 13.19727199139982
ONEWEB-0492             
1 54114U 22138B   25253.69915216  .00000058  00000+0  11209-3 0  9995
2 54114  87.9282   0.5458 0001664 104.7966 255.3351 13.19725106139973
ONEWEB-0495             
1 54115U 22138C   25253.82867043  .00000012  00000+0 -32349-5 0  9996
2 54115  87.9274   0.5289 0001130  88.0029 272.1234 13.19726882139978
ONEWEB-0497             
1 54116U 22138D   25253.84131064 -.00000054  00000+0 -16764-3 0  9994
2 54116  87.9289   0.5026 0001713  99.3782 260.7544 13.19726766139969
ONEWEB-0499             
1 54117U 22138E   25253.82392958  .00000060  00000+0  11674-3 0  9994
2 54117  87.9282   0.5235 0001820  87.8276 272.3065 13.19725372139974
ONEWEB-0500             
1 54118U 22138F   25253.82710117  .00000038  00000+0  61479-4 0  9990
2 54118  87.9290   0.5091 0001796 101.8407 258.2928 13.19726556139986
ONEWEB-0501             
1 54119U 22138G   25253.70545869 -.00000153  00000+0 -41412-3 0  9992
2 54119  87.9286   0.5251 0001436  91.4390 268.6907 13.19725720139946
ONEWEB-0502             
1 54120U 22138H   25253.69124933  .00000025  00000+0  30912-4 0  9997
2 54120  87.9285   0.5113 0001632  91.0427 269.0892 13.19724861139964
ONEWEB-0503             
1 54121U 22138J   25253.83182027 -.00000001  00000+0 -35678-4 0  9992
2 54121  87.9285   0.4880 0001981  92.6136 267.5224 13.19724370139974
ONEWEB-0504             
1 54122U 22138K   25253.81919244 -.00000035  00000+0 -12032-3 0  9995
2 54122  87.9289   0.5070 0001687  89.6478 270.4848 13.19724658139984
ONEWEB-0505             
1 54123U 22138L   25253.81604273 -.00000004  00000+0 -42223-4 0  9991
2 54123  87.9288   0.4963 0001392  84.7879 275.3413 13.19726327139963
ONEWEB-0506             
1 54124U 22138M   25253.71494566  .00000072  00000+0  14653-3 0  9991
2 54124  87.9290   0.5134 0001672  94.9782 265.1541 13.19725325139949
ONEWEB-0507             
1 54125U 22138N   25253.81129047  .00000007  00000+0 -14395-4 0  9995
2 54125  87.9276   0.5447 0001577  96.5903 263.5410 13.19724483140008
ONEWEB-0508             
1 54126U 22138P   25253.80813461  .00000032  00000+0  47511-4 0  9998
2 54126  87.9282   0.5303 0001423  96.4995 263.6300 13.19724622139986
ONEWEB-0509             
1 54127U 22138Q   25253.70706114  .00000063  00000+0  12549-3 0  9990
2 54127  87.9289   0.5130 0001709  97.6191 262.5136 13.19724669139942
ONEWEB-0510             
1 54128U 22138R   25253.74045531  .00000004  00000+0 -22722-4 0  9995
2 54128  87.9276 330.1482 0002379 104.8125 255.3272 13.20772666142399
ONEWEB-0511             
1 54129U 22138S   25253.70389641  .00000073  00000+0  15032-3 0  9995
2 54129  87.9289   0.5184 0001977  92.0053 268.1306 13.19725916139976
ONEWEB-0512             
1 54130U 22138T   25253.69600358  .00000050  00000+0  93100-4 0  9994
2 54130  87.9269   0.5595 0001530  87.6732 272.4576 13.19724929139948
ONEWEB-0513             
1 54131U 22138U   25253.81894556  .00000071  00000+0  14482-3 0  9992
2 54131  87.9293   0.4956 0001778  78.1461 281.9872 13.20313855139852
ONEWEB-0514             
1 54132U 22138V   25253.71179312  .00000087  00000+0  18611-3 0  9993
2 54132  87.9292   0.5301 0001935 100.1322 260.0029 13.19724706139967
ONEWEB-0515             
1 54133U 22138W   25253.72781624 -.00000017  00000+0 -74042-4 0  9996
2 54133  87.9287 330.1296 0002297 122.0354 238.1003 13.20771127142410
ONEWEB-0516             
1 54134U 22138X   25253.83815776  .00000008  00000+0 -13519-4 0  9996
2 54134  87.9270   0.5365 0001630 101.0063 259.1253 13.19727114139985
ONEWEB-0517             
1 54135U 22138Y   25253.81762254 -.00000149  00000+0 -40447-3 0  9993
2 54135  87.9288   0.5042 0002018  92.5355 267.6009 13.19724990139988
ONEWEB-0518             
1 54136U 22138Z   25253.83656088  .00000059  00000+0  11509-3 0  9998
2 54136  87.9281   0.5362 0001632  95.9079 264.2240 13.19724188139987
ONEWEB-0519             
1 54137U 22138AA  25253.55858654  .00000035  00000+0  54251-4 0  9997
2 54137  87.9288   0.5472 0001959  93.8632 266.2724 13.19724371139951
ONEWEB-0520             
1 54138U 22138AB  25253.82077194 -.00000068  00000+0 -20138-3 0  9994
2 54138  87.9288   0.4994 0001506  94.6206 265.5099 13.19724676139971
ONEWEB-0521             
1 54139U 22138AC  25253.70232101  .00000107  00000+0  23386-3 0  9993
2 54139  87.9288   0.5090 0002075  96.7773 263.3596 13.19725992139907
ONEWEB-0522             
1 54140U 22138AD  25253.83341880  .00000019  00000+0  15505-4 0  9991
2 54140  87.9284   0.4841 0001694  99.9812 260.1512 13.19725974139962
ONEWEB-0523             
1 54141U 22138AE  25253.71520807  .00000064  00000+0  12476-3 0  9990
2 54141  87.9282 330.1583 0002673 109.7232 250.4190 13.20770883142410
ONEWEB-0524             
1 54142U 22138AF  25253.70413560  .00000068  00000+0  13545-3 0  9999
2 54142  87.9283 330.1612 0002035 126.4524 233.6797 13.20773568142416
ONEWEB-0525             
1 54143U 22138AG  25253.70072506  .00000006  00000+0 -18241-4 0  9993
2 54143  87.9288   0.5316 0001526  95.9868 264.1438 13.19727216139960
ONEWEB-0526             
1 54144U 22138AH  25253.73389426  .00000079  00000+0  16534-3 0  9990
2 54144  87.9287   0.5122 0001708 100.0218 260.1108 13.19724578139940
ONEWEB-0529             
1 54145U 22138AJ  25253.81287697  .00000123  00000+0  27569-3 0  9997
2 54145  87.9279   0.5362 0001559  97.3969 262.7341 13.19723395139979
ONEWEB-0531             
1 54146U 22138AK  25253.68993441  .00000070  00000+0  14009-3 0  9990
2 54146  87.9273 330.1554 0002569 115.6466 244.4933 13.20770422142419
ONEWEB-0535             
1 54147U 22138AL  25253.69441140 -.00000008  00000+0 -53475-4 0  9990
2 54147  87.9285   0.5154 0002167 103.4434 256.6941 13.19724842139975
ONEWEB-0536             
1 54148U 22138AM  25253.67730928  .00000009  00000+0 -10889-4 0  9996
2 54148  87.9276 330.2052 0002516 121.0337 239.1043 13.20770561142404
ONEWEB-0527             
1 54642U 22166A   25253.62454521  .00000132  00000+0  28838-3 0  9991
2 54642  87.9212 299.7909 0001864  96.9443 263.1903 13.21823911134600
ONEWEB-0528             
1 54643U 22166B   25253.63084055  .00000009  00000+0 -10600-4 0  9997
2 54643  87.9218 299.7919 0001845  95.8415 264.2929 13.21822582134618
ONEWEB-0539             
1 54644U 22166C   25253.66715544 -.00000026  00000+0 -94024-4 0  9997
2 54644  87.9206 299.7528 0001988  89.3266 270.8096 13.21824596134617
ONEWEB-0540             
1 54645U 22166D   25253.67358630  .00000001  00000+0 -29047-4 0  9993
2 54645  87.9210 299.7883 0002028  88.8745 271.2621 13.21824428134601
ONEWEB-0542             
1 54646U 22166E   25253.67659342  .00000058  00000+0  10937-3 0  9996
2 54646  87.9206 299.7481 0002180  87.8510 272.2874 13.21823966134617
ONEWEB-0545             
1 54647U 22166F   25253.64346040 -.00000009  00000+0 -53304-4 0  9996
2 54647  87.9213 299.7738 0002136  81.1262 279.0114 13.21822654134573
ONEWEB-0580             
1 54648U 22166G   25253.69237696  .00000032  00000+0  46388-4 0  9996
2 54648  87.9214 299.7621 0002253  89.1122 271.0270 13.21823178134622
ONEWEB-0582             
1 54649U 22166H   25253.65924236  .00000044  00000+0  74940-4 0  9994
2 54649  87.9203 299.7631 0002324  86.8597 273.2803 13.21823733134590
ONEWEB-0583             
1 54650U 22166J   25253.82168503  .00000008  00000+0 -13302-4 0  9998
2 54650  87.9210 299.7551 0001935  90.8790 269.2566 13.21829134134624
ONEWEB-0584             
1 54651U 22166K   25253.69079040  .00000079  00000+0  15900-3 0  9993
2 54651  87.9213 299.7661 0002321  91.2160 268.9240 13.21823455134597
ONEWEB-0585             
1 54652U 22166L   25253.64033508  .00000041  00000+0  68285-4 0  9992
2 54652  87.9211 299.7620 0001883  99.2764 260.8583 13.21827025134599
ONEWEB-0586             
1 54653U 22166M   25253.65294782  .00000035  00000+0  53994-4 0  9991
2 54653  87.9214 299.7840 0001995  89.9681 270.1682 13.21824158134593
ONEWEB-0587             
1 54654U 22166N   25253.66242543 -.00000017  00000+0 -72197-4 0  9999
2 54654  87.9216 299.7297 0001700 106.6615 253.4705 13.21825462134757
